[{"CCSDS_OMM_VERS":"2.0","COMMENT":"GENERATED VIA SPACE-TRACK.ORG API","CREATION_DATE":"2020-12-31T21:36:10","ORIGINATOR":"18 SPCS","OBJECT_NAME":"ONEWEB-0027","OBJECT_ID":"2020-020J","CENTER_NAME":"EARTH","REF_FRAME":"TEME","TIME_SYSTEM":"UTC","MEAN_ELEMENT_THEORY":"SGP4","EPOCH":"2020-12-31T20:00:01.000224","MEAN_MOTION":"14.89715601","ECCENTRICITY":"0.00260080","INCLINATION":"87.5639","RA_OF_ASC_NODE":"48.9154","ARG_OF_PERICENTER":"353.1490","MEAN_ANOMALY":"26.8165","EPHEMERIS_TYPE":"0","CLASSIFICATION_TYPE":"U","NORAD_CAT_ID":"45432","ELEMENT_SET_NO":"999","REV_AT_EPOCH":"4264","BSTAR":"-0.00351940000000","MEAN_MOTION_DOT":"-0.00033670","MEAN_MOTION_DDOT":"0.0000000000000","SEMIMAJOR_AXIS":"6976.960","PERIOD":"96.662","APOAPSIS":"616.971","PERIAPSIS":"580.679","OBJECT_TYPE":"PAYLOAD","RCS_SIZE":"MEDIUM","COUNTRY_CODE":"UK","LAUNCH_DATE":"2020-03-21","SITE":"TTMTR","DECAY_DATE":null,"FILE":"2913466","GP_ID":"168698363","TLE_LINE0":"0 ONEWEB-0027","TLE_LINE1":"1 45432U 20020J   20366.83334491 -.00033670  00000-0 -35194-2 0  9999","TLE_LINE2":"2 45432  87.5639  48.9154 0026008 353.1490  26.8165 14.89715601 42646"},{"CCSDS_OMM_VERS":"2.0","COMMENT":"GENERATED VIA SPACE-TRACK.ORG API","CREATION_DATE":"2021-01-01T02:27:52","ORIGINATOR":"18 SPCS","OBJECT_NAME":"ONEWEB-0027","OBJECT_ID":"2020-020J","CENTER_NAME":"EARTH","REF_FRAME":"TEME","TIME_SYSTEM":"UTC","MEAN_ELEMENT_THEORY":"SGP4","EPOCH":"2021-01-01T00:00:00.999648","MEAN_MOTION":"14.89669224","ECCENTRICITY":"0.00259640","INCLINATION":"87.5638","RA_OF_ASC_NODE":"48.8641","ARG_OF_PERICENTER":"352.4309","MEAN_ANOMALY":"200.7677","EPHEMERIS_TYPE":"0","CLASSIFICATION_TYPE":"U","NORAD_CAT_ID":"45432","ELEMENT_SET_NO":"999","REV_AT_EPOCH":"175","BSTAR":"0.00713460000000","MEAN_MOTION_DOT":"0.00069252","MEAN_MOTION_DDOT":"0.0000000000000","SEMIMAJOR_AXIS":"6977.105","PERIOD":"96.665","APOAPSIS":"617.085","PERIAPSIS":"580.854","OBJECT_TYPE":"PAYLOAD","RCS_SIZE":"MEDIUM","COUNTRY_CODE":"UK","LAUNCH_DATE":"2020-03-21","SITE":"TTMTR","DECAY_DATE":null,"FILE":"2913608","GP_ID":"168719775","TLE_LINE0":"0 ONEWEB-0027","TLE_LINE1":"1 45432U 20020J   21001.00001157  .00069252  00000-0  71346-2 0  9997","TLE_LINE2":"2 45432  87.5638  48.8641 0025964 352.4309 200.7677 14.89669224  1753"},{"CCSDS_OMM_VERS":"2.0","COMMENT":"GENERATED VIA SPACE-TRACK.ORG API","CREATION_DATE":"2021-01-01T14:26:09","ORIGINATOR":"18 SPCS","OBJECT_NAME":"ONEWEB-0027","OBJECT_ID":"2020-020J","CENTER_NAME":"EARTH","REF_FRAME":"TEME","TIME_SYSTEM":"UTC","MEAN_ELEMENT_THEORY":"SGP4","EPOCH":"2021-01-01T14:00:01.000224","MEAN_MOTION":"14.89692018","ECCENTRICITY":"0.00259480","INCLINATION":"87.5636","RA_OF_ASC_NODE":"48.6824","ARG_OF_PERICENTER":"350.1611","MEAN_ANOMALY":"89.3044","EPHEMERIS_TYPE":"0","CLASSIFICATION_TYPE":"U","NORAD_CAT_ID":"45432","ELEMENT_SET_NO":"999","REV_AT_EPOCH":"4275","BSTAR":"0.00363660000000","MEAN_MOTION_DOT":"0.00035163","MEAN_MOTION_DDOT":"0.0000000000000","SEMIMAJOR_AXIS":"6977.034","PERIOD":"96.664","APOAPSIS":"617.003","PERIAPSIS":"580.795","OBJECT_TYPE":"PAYLOAD","RCS_SIZE":"MEDIUM","COUNTRY_CODE":"UK","LAUNCH_DATE":"2020-03-21","SITE":"TTMTR","DECAY_DATE":null,"FILE":"2913794","GP_ID":"168726374","TLE_LINE0":"0 ONEWEB-0027","TLE_LINE1":"1 45432U 20020J   21001.58334491  .00035163  00000-0  36366-2 0  9997","TLE_LINE2":"2 45432  87.5636  48.6824 0025948 350.1611  89.3044 14.89692018 42756"},{"CCSDS_OMM_VERS":"2.0","COMMENT":"GENERATED VIA SPACE-TRACK.ORG API","CREATION_DATE":"2021-01-02T05:37:54","ORIGINATOR":"18 SPCS","OBJECT_NAME":"ONEWEB-0027","OBJECT_ID":"2020-020J","CENTER_NAME":"EARTH","REF_FRAME":"TEME","TIME_SYSTEM":"UTC","MEAN_ELEMENT_THEORY":"SGP4","EPOCH":"2021-01-01T22:00:00.999936","MEAN_MOTION":"14.89684751","ECCENTRICITY":"0.00258340","INCLINATION":"87.5636","RA_OF_ASC_NODE":"48.5806","ARG_OF_PERICENTER":"349.0400","MEAN_ANOMALY":"76.8777","EPHEMERIS_TYPE":"0","CLASSIFICATION_TYPE":"U","NORAD_CAT_ID":"45432","ELEMENT_SET_NO":"999","REV_AT_EPOCH":"179","BSTAR":"0.00280490000000","MEAN_MOTION_DOT":"0.00027091","MEAN_MOTION_DDOT":"0.0000000000000","SEMIMAJOR_AXIS":"6977.056","PERIOD":"96.664","APOAPSIS":"616.946","PERIAPSIS":"580.897","OBJECT_TYPE":"PAYLOAD","RCS_SIZE":"MEDIUM","COUNTRY_CODE":"UK","LAUNCH_DATE":"2020-03-21","SITE":"TTMTR","DECAY_DATE":null,"FILE":"2914228","GP_ID":"168777589","TLE_LINE0":"0 ONEWEB-0027","TLE_LINE1":"1 45432U 20020J   21001.91667824  .00027091  00000-0  28049-2 0  9993","TLE_LINE2":"2 45432  87.5636  48.5806 0025834 349.0400  76.8777 14.89684751  1790"},{"CCSDS_OMM_VERS":"2.0","COMMENT":"GENERATED VIA SPACE-TRACK.ORG API","CREATION_DATE":"2021-01-02T06:26:09","ORIGINATOR":"18 SPCS","OBJECT_NAME":"ONEWEB-0027","OBJECT_ID":"2020-020J","CENTER_NAME":"EARTH","REF_FRAME":"TEME","TIME_SYSTEM":"UTC","MEAN_ELEMENT_THEORY":"SGP4","EPOCH":"2021-01-02T06:00:00.999648","MEAN_MOTION":"14.89733510","ECCENTRICITY":"0.00258350","INCLINATION":"87.5635","RA_OF_ASC_NODE":"48.4768","ARG_OF_PERICENTER":"347.6568","MEAN_ANOMALY":"64.6861","EPHEMERIS_TYPE":"0","CLASSIFICATION_TYPE":"U","NORAD_CAT_ID":"45432","ELEMENT_SET_NO":"999","REV_AT_EPOCH":"4285","BSTAR":"-0.00589580000000","MEAN_MOTION_DOT":"-0.00056266","MEAN_MOTION_DDOT":"0.0000000000000","SEMIMAJOR_AXIS":"6976.904","PERIOD":"96.661","APOAPSIS":"616.794","PERIAPSIS":"580.744","OBJECT_TYPE":"PAYLOAD","RCS_SIZE":"MEDIUM","COUNTRY_CODE":"UK","LAUNCH_DATE":"2020-03-21","SITE":"TTMTR","DECAY_DATE":null,"FILE":"2914292","GP_ID":"168781561","TLE_LINE0":"0 ONEWEB-0027","TLE_LINE1":"1 45432U 20020J   21002.25001157 -.00056266  00000-0 -58958-2 0  9992","TLE_LINE2":"2 45432  87.5635  48.4768 0025835 347.6568  64.6861 14.89733510 42854"},{"CCSDS_OMM_VERS":"2.0","COMMENT":"GENERATED VIA SPACE-TRACK.ORG API","CREATION_DATE":"2021-01-02T17:46:16","ORIGINATOR":"18 SPCS","OBJECT_NAME":"ONEWEB-0027","OBJECT_ID":"2020-020J","CENTER_NAME":"EARTH","REF_FRAME":"TEME","TIME_SYSTEM":"UTC","MEAN_ELEMENT_THEORY":"SGP4","EPOCH":"2021-01-02T12:00:00.999648","MEAN_MOTION":"14.89675875","ECCENTRICITY":"0.00258440","INCLINATION":"87.5635","RA_OF_ASC_NODE":"48.3990","ARG_OF_PERICENTER":"346.8859","MEAN_ANOMALY":"325.3081","EPHEMERIS_TYPE":"0","CLASSIFICATION_TYPE":"U","NORAD_CAT_ID":"45432","ELEMENT_SET_NO":"999","REV_AT_EPOCH":"178","BSTAR":"0.00570960000000","MEAN_MOTION_DOT":"0.00055323","MEAN_MOTION_DDOT":"0.0000000000000","SEMIMAJOR_AXIS":"6977.084","PERIOD":"96.665","APOAPSIS":"616.981","PERIAPSIS":"580.917","OBJECT_TYPE":"PAYLOAD","RCS_SIZE":"MEDIUM","COUNTRY_CODE":"UK","LAUNCH_DATE":"2020-03-21","SITE":"TTMTR","DECAY_DATE":null,"FILE":"2914532","GP_ID":"168807866","TLE_LINE0":"0 ONEWEB-0027","TLE_LINE1":"1 45432U 20020J   21002.50001157  .00055323  00000-0  57096-2 0  9993","TLE_LINE2":"2 45432  87.5635  48.3990 0025844 346.8859 325.3081 14.89675875  1781"},{"CCSDS_OMM_VERS":"2.0","COMMENT":"GENERATED VIA SPACE-TRACK.ORG API","CREATION_DATE":"2021-01-03T04:45:08","ORIGINATOR":"18 SPCS","OBJECT_NAME":"ONEWEB-0027","OBJECT_ID":"2020-020J","CENTER_NAME":"EARTH","REF_FRAME":"TEME","TIME_SYSTEM":"UTC","MEAN_ELEMENT_THEORY":"SGP4","EPOCH":"2021-01-02T22:00:00.999936","MEAN_MOTION":"14.89683754","ECCENTRICITY":"0.00257300","INCLINATION":"87.5635","RA_OF_ASC_NODE":"48.2715","ARG_OF_PERICENTER":"345.3509","MEAN_ANOMALY":"39.8977","EPHEMERIS_TYPE":"0","CLASSIFICATION_TYPE":"U","NORAD_CAT_ID":"45432","ELEMENT_SET_NO":"999","REV_AT_EPOCH":"178","BSTAR":"0.00297450000000","MEAN_MOTION_DOT":"0.00028731","MEAN_MOTION_DDOT":"0.0000000000000","SEMIMAJOR_AXIS":"6977.059","PERIOD":"96.664","APOAPSIS":"616.876","PERIAPSIS":"580.972","OBJECT_TYPE":"PAYLOAD","RCS_SIZE":"MEDIUM","COUNTRY_CODE":"UK","LAUNCH_DATE":"2020-03-21","SITE":"TTMTR","DECAY_DATE":null,"FILE":"2914766","GP_ID":"168833177","TLE_LINE0":"0 ONEWEB-0027","TLE_LINE1":"1 45432U 20020J   21002.91667824  .00028731  00000-0  29745-2 0  9990","TLE_LINE2":"2 45432  87.5635  48.2715 0025730 345.3509  39.8977 14.89683754  1781"},{"CCSDS_OMM_VERS":"2.0","COMMENT":"GENERATED VIA SPACE-TRACK.ORG API","CREATION_DATE":"2021-01-02T22:36:10","ORIGINATOR":"18 SPCS","OBJECT_NAME":"ONEWEB-0027","OBJECT_ID":"2020-020J","CENTER_NAME":"EARTH","REF_FRAME":"TEME","TIME_SYSTEM":"UTC","MEAN_ELEMENT_THEORY":"SGP4","EPOCH":"2021-01-02T22:00:00.999936","MEAN_MOTION":"14.89683754","ECCENTRICITY":"0.00257300","INCLINATION":"87.5635","RA_OF_ASC_NODE":"48.2715","ARG_OF_PERICENTER":"345.3509","MEAN_ANOMALY":"39.8977","EPHEMERIS_TYPE":"0","CLASSIFICATION_TYPE":"U","NORAD_CAT_ID":"45432","ELEMENT_SET_NO":"999","REV_AT_EPOCH":"4295","BSTAR":"0.00297450000000","MEAN_MOTION_DOT":"0.00028731","MEAN_MOTION_DDOT":"0.0000000000000","SEMIMAJOR_AXIS":"6977.059","PERIOD":"96.664","APOAPSIS":"616.876","PERIAPSIS":"580.972","OBJECT_TYPE":"PAYLOAD","RCS_SIZE":"MEDIUM","COUNTRY_CODE":"UK","LAUNCH_DATE":"2020-03-21","SITE":"TTMTR","DECAY_DATE":null,"FILE":"2914634","GP_ID":"168811025","TLE_LINE0":"0 ONEWEB-0027","TLE_LINE1":"1 45432U 20020J   21002.91667824  .00028731  00000-0  29745-2 0  9990","TLE_LINE2":"2 45432  87.5635  48.2715 0025730 345.3509  39.8977 14.89683754 42955"}]